GECAM-B                 
1 47235U 20094B   26058.19405615  .00003224  00000+0  23073-3 0  9996
2 47235  28.9982  10.8844 0010635 257.2071 102.7339 15.01652363285175
STARLINK-35245          
1 65599U 25207H   26068.73930920  .00006594  00000+0  46078-3 0  9996
2 65599  97.6029 138.7863 0000852 126.3755 233.7551 15.05649100 28275
